[{"OBJECT_NAME":"STARLINK-37298","OBJECT_ID":"2026-077J","EPOCH":"2026-04-28T16:58:33.961728","MEAN_MOTION":15.75218099,"ECCENTRICITY":0.0001098,"INCLINATION":97.2846,"RA_OF_ASC_NODE":350.0602,"ARG_OF_PERICENTER":89.2193,"MEAN_ANOMALY":270.9197,"EPHEMERIS_TYPE":0,"CLASSIFICATION_TYPE":"U","NORAD_CAT_ID":68670,"ELEMENT_SET_NO":999,"REV_AT_EPOCH":278,"BSTAR":0.00071301,"MEAN_MOTION_DOT":0.001077,"MEAN_MOTION_DDOT":0},{"OBJECT_NAME":"STARLINK-37224","OBJECT_ID":"2026-077K","EPOCH":"2026-04-28T16:56:01.504608","MEAN_MOTION":15.7521931,"ECCENTRICITY":0.0001114,"INCLINATION":97.2848,"RA_OF_ASC_NODE":350.063,"ARG_OF_PERICENTER":73.5347,"MEAN_ANOMALY":286.6041,"EPHEMERIS_TYPE":0,"CLASSIFICATION_TYPE":"U","NORAD_CAT_ID":68671,"ELEMENT_SET_NO":999,"REV_AT_EPOCH":278,"BSTAR":0.00071573,"MEAN_MOTION_DOT":0.00108123,"MEAN_MOTION_DDOT":0},{"OBJECT_NAME":"STARLINK-37296","OBJECT_ID":"2026-077L","EPOCH":"2026-04-28T15:24:04.825728","MEAN_MOTION":15.74933371,"ECCENTRICITY":0.0001835,"INCLINATION":97.2845,"RA_OF_ASC_NODE":349.996,"ARG_OF_PERICENTER":90.1218,"MEAN_ANOMALY":270.0257,"EPHEMERIS_TYPE":0,"CLASSIFICATION_TYPE":"U","NORAD_CAT_ID":68672,"ELEMENT_SET_NO":999,"REV_AT_EPOCH":277,"BSTAR":-0.0019917,"MEAN_MOTION_DOT":-0.00284388,"MEAN_MOTION_DDOT":0},{"OBJECT_NAME":"STARLINK-37316","OBJECT_ID":"2026-077M","EPOCH":"2026-04-28T16:54:30.060576","MEAN_MOTION":15.75243682,"ECCENTRICITY":0.000148,"INCLINATION":97.2846,"RA_OF_ASC_NODE":350.0643,"ARG_OF_PERICENTER":59.4989,"MEAN_ANOMALY":300.6422,"EPHEMERIS_TYPE":0,"CLASSIFICATION_TYPE":"U","NORAD_CAT_ID":68673,"ELEMENT_SET_NO":999,"REV_AT_EPOCH":278,"BSTAR":0.0011083,"MEAN_MOTION_DOT":0.00168882,"MEAN_MOTION_DDOT":0},{"OBJECT_NAME":"STARLINK-36672","OBJECT_ID":"2026-077N","EPOCH":"2026-04-28T21:27:08.017056","MEAN_MOTION":15.74374126,"ECCENTRICITY":0.0001927,"INCLINATION":97.2844,"RA_OF_ASC_NODE":350.2653,"ARG_OF_PERICENTER":199.7616,"MEAN_ANOMALY":160.3575,"EPHEMERIS_TYPE":0,"CLASSIFICATION_TYPE":"U","NORAD_CAT_ID":68674,"ELEMENT_SET_NO":999,"REV_AT_EPOCH":281,"BSTAR":-0.0022508,"MEAN_MOTION_DOT":-0.00312683,"MEAN_MOTION_DDOT":0},{"OBJECT_NAME":"STARLINK-36669","OBJECT_ID":"2026-077P","EPOCH":"2026-04-28T19:53:54.009312","MEAN_MOTION":15.75248775,"ECCENTRICITY":0.0001226,"INCLINATION":97.2843,"RA_OF_ASC_NODE":350.2007,"ARG_OF_PERICENTER":74.2289,"MEAN_ANOMALY":285.9111,"EPHEMERIS_TYPE":0,"CLASSIFICATION_TYPE":"U","NORAD_CAT_ID":68675,"ELEMENT_SET_NO":999,"REV_AT_EPOCH":280,"BSTAR":0.0012208,"MEAN_MOTION_DOT":0.00186464,"MEAN_MOTION_DDOT":0},{"OBJECT_NAME":"STARLINK-37312","OBJECT_ID":"2026-077Q","EPOCH":"2026-04-28T21:19:16.877856","MEAN_MOTION":15.75270888,"ECCENTRICITY":0.0001815,"INCLINATION":97.2847,"RA_OF_ASC_NODE":350.2732,"ARG_OF_PERICENTER":98.9527,"MEAN_ANOMALY":261.1944,"EPHEMERIS_TYPE":0,"CLASSIFICATION_TYPE":"U","NORAD_CAT_ID":68676,"ELEMENT_SET_NO":999,"REV_AT_EPOCH":281,"BSTAR":0.0013839,"MEAN_MOTION_DOT":0.00212244,"MEAN_MOTION_DDOT":0},{"OBJECT_NAME":"STARLINK-36168","OBJECT_ID":"2026-077R","EPOCH":"2026-04-28T21:22:23.431008","MEAN_MOTION":15.74821685,"ECCENTRICITY":0.0001453,"INCLINATION":97.2848,"RA_OF_ASC_NODE":350.2707,"ARG_OF_PERICENTER":91.8513,"MEAN_ANOMALY":268.2918,"EPHEMERIS_TYPE":0,"CLASSIFICATION_TYPE":"U","NORAD_CAT_ID":68677,"ELEMENT_SET_NO":999,"REV_AT_EPOCH":281,"BSTAR":-0.003076,"MEAN_MOTION_DOT":-0.00429711,"MEAN_MOTION_DDOT":0},{"OBJECT_NAME":"STARLINK-37122","OBJECT_ID":"2026-077S","EPOCH":"2026-04-28T21:20:48.321888","MEAN_MOTION":15.75273708,"ECCENTRICITY":0.0002167,"INCLINATION":97.2844,"RA_OF_ASC_NODE":350.271,"ARG_OF_PERICENTER":96.2041,"MEAN_ANOMALY":263.9471,"EPHEMERIS_TYPE":0,"CLASSIFICATION_TYPE":"U","NORAD_CAT_ID":68678,"ELEMENT_SET_NO":999,"REV_AT_EPOCH":281,"BSTAR":0.0014081,"MEAN_MOTION_DOT":0.0021608,"MEAN_MOTION_DDOT":0},{"OBJECT_NAME":"STARLINK-37310","OBJECT_ID":"2026-077T","EPOCH":"2026-04-28T21:19:47.218080","MEAN_MOTION":15.75266041,"ECCENTRICITY":0.0002349,"INCLINATION":97.2848,"RA_OF_ASC_NODE":350.273,"ARG_OF_PERICENTER":104.7479,"MEAN_ANOMALY":255.4047,"EPHEMERIS_TYPE":0,"CLASSIFICATION_TYPE":"U","NORAD_CAT_ID":68679,"ELEMENT_SET_NO":999,"REV_AT_EPOCH":281,"BSTAR":0.0012304,"MEAN_MOTION_DOT":0.00188123,"MEAN_MOTION_DDOT":0},{"OBJECT_NAME":"STARLINK-37306","OBJECT_ID":"2026-077U","EPOCH":"2026-04-28T21:16:44.419008","MEAN_MOTION":15.7528053,"ECCENTRICITY":0.0002412,"INCLINATION":97.2848,"RA_OF_ASC_NODE":350.2751,"ARG_OF_PERICENTER":107.0411,"MEAN_ANOMALY":253.1119,"EPHEMERIS_TYPE":0,"CLASSIFICATION_TYPE":"U","NORAD_CAT_ID":68680,"ELEMENT_SET_NO":999,"REV_AT_EPOCH":281,"BSTAR":0.0015031,"MEAN_MOTION_DOT":0.00231153,"MEAN_MOTION_DDOT":0},{"OBJECT_NAME":"STARLINK-37307","OBJECT_ID":"2026-077V","EPOCH":"2026-04-28T21:17:14.843040","MEAN_MOTION":15.75275948,"ECCENTRICITY":0.0002362,"INCLINATION":97.2845,"RA_OF_ASC_NODE":350.2745,"ARG_OF_PERICENTER":113.5161,"MEAN_ANOMALY":246.6352,"EPHEMERIS_TYPE":0,"CLASSIFICATION_TYPE":"U","NORAD_CAT_ID":68681,"ELEMENT_SET_NO":999,"REV_AT_EPOCH":281,"BSTAR":0.0013897,"MEAN_MOTION_DOT":0.00213216,"MEAN_MOTION_DDOT":0},{"OBJECT_NAME":"STARLINK-37300","OBJECT_ID":"2026-077W","EPOCH":"2026-04-28T21:11:09.022848","MEAN_MOTION":15.75272378,"ECCENTRICITY":0.000168,"INCLINATION":97.2846,"RA_OF_ASC_NODE":350.2807,"ARG_OF_PERICENTER":96.8076,"MEAN_ANOMALY":263.3381,"EPHEMERIS_TYPE":0,"CLASSIFICATION_TYPE":"U","NORAD_CAT_ID":68682,"ELEMENT_SET_NO":999,"REV_AT_EPOCH":281,"BSTAR":0.0014132,"MEAN_MOTION_DOT":0.00216873,"MEAN_MOTION_DDOT":0},{"OBJECT_NAME":"STARLINK-37304","OBJECT_ID":"2026-077X","EPOCH":"2026-04-28T21:11:39.518592","MEAN_MOTION":15.75269334,"ECCENTRICITY":0.0001886,"INCLINATION":97.2846,"RA_OF_ASC_NODE":350.2797,"ARG_OF_PERICENTER":98.5861,"MEAN_ANOMALY":261.5618,"EPHEMERIS_TYPE":0,"CLASSIFICATION_TYPE":"U","NORAD_CAT_ID":68683,"ELEMENT_SET_NO":999,"REV_AT_EPOCH":281,"BSTAR":0.0013652,"MEAN_MOTION_DOT":0.00209282,"MEAN_MOTION_DDOT":0},{"OBJECT_NAME":"STARLINK-37287","OBJECT_ID":"2026-077Y","EPOCH":"2026-04-28T21:13:10.885728","MEAN_MOTION":15.75268932,"ECCENTRICITY":0.0002798,"INCLINATION":97.2847,"RA_OF_ASC_NODE":350.2783,"ARG_OF_PERICENTER":106.6205,"MEAN_ANOMALY":253.5368,"EPHEMERIS_TYPE":0,"CLASSIFICATION_TYPE":"U","NORAD_CAT_ID":68684,"ELEMENT_SET_NO":999,"REV_AT_EPOCH":281,"BSTAR":0.0012289,"MEAN_MOTION_DOT":0.00187916,"MEAN_MOTION_DDOT":0},{"OBJECT_NAME":"STARLINK-36278","OBJECT_ID":"2026-077Z","EPOCH":"2026-04-28T21:10:07.989888","MEAN_MOTION":15.75273179,"ECCENTRICITY":0.0001659,"INCLINATION":97.2846,"RA_OF_ASC_NODE":350.2817,"ARG_OF_PERICENTER":101.3488,"MEAN_ANOMALY":258.7964,"EPHEMERIS_TYPE":0,"CLASSIFICATION_TYPE":"U","NORAD_CAT_ID":68685,"ELEMENT_SET_NO":999,"REV_AT_EPOCH":281,"BSTAR":0.0014285,"MEAN_MOTION_DOT":0.00219291,"MEAN_MOTION_DDOT":0}]
