STARLINK-37298          
1 68670U 26077J   26118.70733752  .00107700  00000+0  71301-3 0  9990
2 68670  97.2846 350.0602 0001098  89.2193 270.9197 15.75218099  2780
STARLINK-37224          
1 68671U 26077K   26118.70557297  .00108123  00000+0  71573-3 0  9990
2 68671  97.2848 350.0630 0001114  73.5347 286.6041 15.75219310  2789
STARLINK-37296          
1 68672U 26077L   26118.64172252 -.00284388  00000+0 -19917-2 0  9991
2 68672  97.2845 349.9960 0001835  90.1218 270.0257 15.74933371  2776
STARLINK-37316          
1 68673U 26077M   26118.70451459  .00168882  00000+0  11083-2 0  9992
2 68673  97.2846 350.0643 0001480  59.4989 300.6422 15.75243682  2783
STARLINK-36672          
1 68674U 26077N   26118.89384279 -.00312683  00000+0 -22508-2 0  9994
2 68674  97.2844 350.2653 0001927 199.7616 160.3575 15.74374126  2817
STARLINK-36669          
1 68675U 26077P   26118.82909733  .00186464  00000+0  12208-2 0  9996
2 68675  97.2843 350.2007 0001226  74.2289 285.9111 15.75248775  2805
STARLINK-37312          
1 68676U 26077Q   26118.88838979  .00212244  00000+0  13839-2 0  9993
2 68676  97.2847 350.2732 0001815  98.9527 261.1944 15.75270888  2818
STARLINK-36168          
1 68677U 26077R   26118.89054897 -.00429711  00000+0 -30760-2 0  9997
2 68677  97.2848 350.2707 0001453  91.8513 268.2918 15.74821685  2812
STARLINK-37122          
1 68678U 26077S   26118.88944817  .00216080  00000+0  14081-2 0  9996
2 68678  97.2844 350.2710 0002167  96.2041 263.9471 15.75273708  2815
STARLINK-37310          
1 68679U 26077T   26118.88874095  .00188123  00000+0  12304-2 0  9999
2 68679  97.2848 350.2730 0002349 104.7479 255.4047 15.75266041  2811
STARLINK-37306          
1 68680U 26077U   26118.88662522  .00231153  00000+0  15031-2 0  9993
2 68680  97.2848 350.2751 0002412 107.0411 253.1119 15.75280530  2813
STARLINK-37307          
1 68681U 26077V   26118.88697735  .00213216  00000+0  13897-2 0  9996
2 68681  97.2845 350.2745 0002362 113.5161 246.6352 15.75275948  2815
STARLINK-37300          
1 68682U 26077W   26118.88274332  .00216873  00000+0  14132-2 0  9996
2 68682  97.2846 350.2807 0001680  96.8076 263.3381 15.75272378  2818
STARLINK-37304          
1 68683U 26077X   26118.88309628  .00209282  00000+0  13652-2 0  9996
2 68683  97.2846 350.2797 0001886  98.5861 261.5618 15.75269334  2817
STARLINK-37287          
1 68684U 26077Y   26118.88415377  .00187916  00000+0  12289-2 0  9990
2 68684  97.2847 350.2783 0002798 106.6205 253.5368 15.75268932  2816
STARLINK-36278          
1 68685U 26077Z   26118.88203692  .00219291  00000+0  14285-2 0  9996
2 68685  97.2846 350.2817 0001659 101.3488 258.7964 15.75273179  2812
